{"type": "FeatureCollection", "features": [{"type": "Feature", "properties": {"norad_id": 24946, "name": "IRIDIUM 33", "group": "iridium-33-debris", "lat": -74.60710136358921, "lon": -102.46599382913854, "alt_km": 781.9115902012818, "timestamp": "2025-12-22T04:03:39.553464+00:00", "meta": {"OBJECT_NAME": "IRIDIUM 33", "OBJECT_ID": "1997-051C", "EPOCH": "2025-12-21T16:50:08.875104", "MEAN_MOTION": 14.35043089, "ECCENTRICITY": 0.0008106, "INCLINATION": 86.3862, "RA_OF_ASC_NODE": 64.4599, "ARG_OF_PERICENTER": 170.6485, "MEAN_ANOMALY": 189.4863, "EPHEMERIS_TYPE": 0, "CLASSIFICATION_TYPE": "U", "NORAD_CAT_ID": 24946, "ELEMENT_SET_NO": 999, "REV_AT_EPOCH": 47963, "BSTAR": 9.0806e-05, "MEAN_MOTION_DOT": 2.78e-06, "MEAN_MOTION_DDOT": 0}, "tle": {"line1": "1 24946U 97051C   25355.70149161  .00000278  00000+0  90806-4 0  9999", "line2": "2 24946  86.3862  64.4599 0008106 170.6485 189.4863 14.35043089479638"}}, "geometry": {"type": "Point", "coordinates": [-102.46599382913854, -74.60710136358921]}}, {"type": "Feature", "properties": {"norad_id": 33773, "name": "IRIDIUM 33 DEB", "group": "iridium-33-debris", "lat": 49.02285584077098, "lon": -127.56273690867435, "alt_km": 734.1914342126956, "timestamp": "2025-12-22T04:03:39.553492+00:00", "meta": {"OBJECT_NAME": "IRIDIUM 33 DEB", "OBJECT_ID": "1997-051L", "EPOCH": "2025-12-21T14:08:46.576608", "MEAN_MOTION": 14.43274227, "ECCENTRICITY": 0.0013137, "INCLINATION": 86.4001, "RA_OF_ASC_NODE": 56.8393, "ARG_OF_PERICENTER": 120.8294, "MEAN_ANOMALY": 239.4201, "EPHEMERIS_TYPE": 0, "CLASSIFICATION_TYPE": "U", "NORAD_CAT_ID": 33773, "ELEMENT_SET_NO": 999, "REV_AT_EPOCH": 88475, "BSTAR": 0.00023086, "MEAN_MOTION_DOT": 7.98e-06, "MEAN_MOTION_DDOT": 0}, "tle": {"line1": "1 33773U 97051L   25355.58942797  .00000798  00000+0  23086-3 0  9991", "line2": "2 33773  86.4001  56.8393 0013137 120.8294 239.4201 14.43274227884758"}}, "geometry": {"type": "Point", "coordinates": [-127.56273690867435, 49.02285584077098]}}, {"type": "Feature", "properties": {"norad_id": 33775, "name": "IRIDIUM 33 DEB", "group": "iridium-33-debris", "lat": 26.12426119962278, "lon": -136.26004970735778, "alt_km": 743.2052986382532, "timestamp": "2025-12-22T04:03:39.553507+00:00", "meta": {"OBJECT_NAME": "IRIDIUM 33 DEB", "OBJECT_ID": "1997-051N", "EPOCH": "2025-12-21T14:37:50.869056", "MEAN_MOTION": 14.41485837, "ECCENTRICITY": 0.0015088, "INCLINATION": 86.3627, "RA_OF_ASC_NODE": 45.7665, "ARG_OF_PERICENTER": 128.1119, "MEAN_ANOMALY": 3.4564, "EPHEMERIS_TYPE": 0, "CLASSIFICATION_TYPE": "U", "NORAD_CAT_ID": 33775, "ELEMENT_SET_NO": 999, "REV_AT_EPOCH": 88268, "BSTAR": 0.00024418, "MEAN_MOTION_DOT": 8.13e-06, "MEAN_MOTION_DDOT": 0}, "tle": {"line1": "1 33775U 97051N   25355.60961654  .00000813  00000+0  24418-3 0  9997", "line2": "2 33775  86.3627  45.7665 0015088 128.1119   3.4564 14.41485837882686"}}, "geometry": {"type": "Point", "coordinates": [-136.26004970735778, 26.12426119962278]}}, {"type": "Feature", "properties": {"norad_id": 33776, "name": "IRIDIUM 33 DEB", "group": "iridium-33-debris", "lat": -84.76265863494432, "lon": 33.48962680002706, "alt_km": 776.1290176473858, "timestamp": "2025-12-22T04:03:39.553520+00:00", "meta": {"OBJECT_NAME": "IRIDIUM 33 DEB", "OBJECT_ID": "1997-051P", "EPOCH": "2025-12-21T19:01:01.614720", "MEAN_MOTION": 14.38249967, "ECCENTRICITY": 0.001537, "INCLINATION": 86.4034, "RA_OF_ASC_NODE": 76.9743, "ARG_OF_PERICENTER": 161.4271, "MEAN_ANOMALY": 322.3629, "EPHEMERIS_TYPE": 0, "CLASSIFICATION_TYPE": "U", "NORAD_CAT_ID": 33776, "ELEMENT_SET_NO": 999, "REV_AT_EPOCH": 88212, "BSTAR": 0.00022511, "MEAN_MOTION_DOT": 7.05e-06, "MEAN_MOTION_DDOT": 0}, "tle": {"line1": "1 33776U 97051P   25355.79237980  .00000705  00000+0  22511-3 0  9998", "line2": "2 33776  86.4034  76.9743 0015370 161.4271 322.3629 14.38249967882128"}}, "geometry": {"type": "Point", "coordinates": [33.48962680002706, -84.76265863494432]}}, {"type": "Feature", "properties": {"norad_id": 33777, "name": "IRIDIUM 33 DEB", "group": "iridium-33-debris", "lat": -68.42806508297156, "lon": 21.88006846515039, "alt_km": 714.0169809031531, "timestamp": "2025-12-22T04:03:39.553532+00:00", "meta": {"OBJECT_NAME": "IRIDIUM 33 DEB", "OBJECT_ID": "1997-051Q", "EPOCH": "2025-12-21T20:07:38.898624", "MEAN_MOTION": 14.5567097, "ECCENTRICITY": 0.0005932, "INCLINATION": 86.3773, "RA_OF_ASC_NODE": 31.2449, "ARG_OF_PERICENTER": 209.5407, "MEAN_ANOMALY": 150.5467, "EPHEMERIS_TYPE": 0, "CLASSIFICATION_TYPE": "U", "NORAD_CAT_ID": 33777, "ELEMENT_SET_NO": 999, "REV_AT_EPOCH": 88666, "BSTAR": 0.00060746, "MEAN_MOTION_DOT": 2.674e-05, "MEAN_MOTION_DDOT": 0}, "tle": {"line1": "1 33777U 97051Q   25355.83864466  .00002674  00000+0  60746-3 0  9998", "line2": "2 33777  86.3773  31.2449 0005932 209.5407 150.5467 14.55670970886668"}}, "geometry": {"type": "Point", "coordinates": [21.88006846515039, -68.42806508297156]}}, {"type": "Feature", "properties": {"norad_id": 33850, "name": "IRIDIUM 33 DEB", "group": "iridium-33-debris", "lat": 22.241106219571037, "lon": -155.37481299724323, "alt_km": 742.7085974288657, "timestamp": "2025-12-22T04:03:39.553543+00:00", "meta": {"OBJECT_NAME": "IRIDIUM 33 DEB", "OBJECT_ID": "1997-051T", "EPOCH": "2025-12-21T12:54:25.325568", "MEAN_MOTION": 14.4216572, "ECCENTRICITY": 0.00130293, "INCLINATION": 86.3408, "RA_OF_ASC_NODE": 26.3962, "ARG_OF_PERICENTER": 134.7554, "MEAN_ANOMALY": 346.6938, "EPHEMERIS_TYPE": 0, "CLASSIFICATION_TYPE": "U", "NORAD_CAT_ID": 33850, "ELEMENT_SET_NO": 999, "REV_AT_EPOCH": 88279, "BSTAR": 0.00030357281, "MEAN_MOTION_DOT": 1.019e-05, "MEAN_MOTION_DDOT": 0}, "tle": {"line1": "1 33850U 97051T   25355.53779312  .00001019  00000+0  30357-3 0  9999", "line2": "2 33850  86.3408  26.3962 0013029 134.7554 346.6938 14.42165720882797"}}, "geometry": {"type": "Point", "coordinates": [-155.37481299724323, 22.241106219571037]}}, {"type": "Feature", "properties": {"norad_id": 33853, "name": "IRIDIUM 33 DEB", "group": "iridium-33-debris", "lat": 20.801118355894566, "lon": 164.15312417939344, "alt_km": 793.6300069468989, "timestamp": "2025-12-22T04:03:39.553555+00:00", "meta": {"OBJECT_NAME": "IRIDIUM 33 DEB", "OBJECT_ID": "1997-051W", "EPOCH": "2025-12-20T22:14:35.888928", "MEAN_MOTION": 13.9910315, "ECCENTRICITY": 0.0207332, "INCLINATION": 85.9999, "RA_OF_ASC_NODE": 346.2208, "ARG_OF_PERICENTER": 210.5493, "MEAN_ANOMALY": 176.3282, "EPHEMERIS_TYPE": 0, "CLASSIFICATION_TYPE": "U", "NORAD_CAT_ID": 33853, "ELEMENT_SET_NO": 999, "REV_AT_EPOCH": 85460, "BSTAR": 0.0010168, "MEAN_MOTION_DOT": 1.786e-05, "MEAN_MOTION_DDOT": 0}, "tle": {"line1": "1 33853U 97051W   25354.92680427  .00001786  00000+0  10168-2 0  9990", "line2": "2 33853  85.9999 346.2208 0207332 210.5493 176.3282 13.99103150854603"}}, "geometry": {"type": "Point", "coordinates": [164.15312417939344, 20.801118355894566]}}, {"type": "Feature", "properties": {"norad_id": 33860, "name": "IRIDIUM 33 DEB", "group": "iridium-33-debris", "lat": -47.73084461791568, "lon": -152.94475968970247, "alt_km": 676.4162381032929, "timestamp": "2025-12-22T04:03:39.553567+00:00", "meta": {"OBJECT_NAME": "IRIDIUM 33 DEB", "OBJECT_ID": "1997-051AD", "EPOCH": "2025-12-21T13:01:46.627392", "MEAN_MOTION": 14.67463908, "ECCENTRICITY": 0.00063803, "INCLINATION": 86.3822, "RA_OF_ASC_NODE": 23.3411, "ARG_OF_PERICENTER": 324.1868, "MEAN_ANOMALY": 197.1057, "EPHEMERIS_TYPE": 0, "CLASSIFICATION_TYPE": "U", "NORAD_CAT_ID": 33860, "ELEMENT_SET_NO": 999, "REV_AT_EPOCH": 88851, "BSTAR": 0.00083483407, "MEAN_MOTION_DOT": 4.749e-05, "MEAN_MOTION_DDOT": 0}, "tle": {"line1": "1 33860U 97051AD  25355.54290078  .00004749  00000+0  83483-3 0  9999", "line2": "2 33860  86.3822  23.3411 0006380 324.1868 197.1057 14.67463908888512"}}, "geometry": {"type": "Point", "coordinates": [-152.94475968970247, -47.73084461791568]}}, {"type": "Feature", "properties": {"norad_id": 33862, "name": "IRIDIUM 33 DEB", "group": "iridium-33-debris", "lat": -25.446554596748896, "lon": 31.658824846273017, "alt_km": 651.0344193992487, "timestamp": "2025-12-22T04:03:39.553578+00:00", "meta": {"OBJECT_NAME": "IRIDIUM 33 DEB", "OBJECT_ID": "1997-051AF", "EPOCH": "2025-12-21T13:59:31.257024", "MEAN_MOTION": 14.69601315, "ECCENTRICITY": 0.0052554, "INCLINATION": 86.4078, "RA_OF_ASC_NODE": 33.6303, "ARG_OF_PERICENTER": 39.5195, "MEAN_ANOMALY": 76.2806, "EPHEMERIS_TYPE": 0, "CLASSIFICATION_TYPE": "U", "NORAD_CAT_ID": 33862, "ELEMENT_SET_NO": 999, "REV_AT_EPOCH": 88953, "BSTAR": 0.0010364, "MEAN_MOTION_DOT": 6.314e-05, "MEAN_MOTION_DDOT": 0}, "tle": {"line1": "1 33862U 97051AF  25355.58300066  .00006314  00000+0  10364-2 0  9991", "line2": "2 33862  86.4078  33.6303 0052554  39.5195  76.2806 14.69601315889536"}}, "geometry": {"type": "Point", "coordinates": [31.658824846273017, -25.446554596748896]}}, {"type": "Feature", "properties": {"norad_id": 33866, "name": "IRIDIUM 33 DEB", "group": "iridium-33-debris", "lat": -20.47838329602968, "lon": 87.66184947852588, "alt_km": 885.4500895943338, "timestamp": "2025-12-22T04:03:39.553589+00:00", "meta": {"OBJECT_NAME": "IRIDIUM 33 DEB", "OBJECT_ID": "1997-051AK", "EPOCH": "2025-12-21T06:30:23.838336", "MEAN_MOTION": 14.25298734, "ECCENTRICITY": 0.0115015, "INCLINATION": 86.3001, "RA_OF_ASC_NODE": 89.4265, "ARG_OF_PERICENTER": 134.3497, "MEAN_ANOMALY": 280.5396, "EPHEMERIS_TYPE": 0, "CLASSIFICATION_TYPE": "U", "NORAD_CAT_ID": 33866, "ELEMENT_SET_NO": 999, "REV_AT_EPOCH": 86932, "BSTAR": 0.00042898, "MEAN_MOTION_DOT": 1.102e-05, "MEAN_MOTION_DDOT": 0}, "tle": {"line1": "1 33866U 97051AK  25355.27110924  .00001102  00000+0  42898-3 0  9991", "line2": "2 33866  86.3001  89.4265 0115015 134.3497 280.5396 14.25298734869320"}}, "geometry": {"type": "Point", "coordinates": [87.66184947852588, -20.47838329602968]}}]}